
 [
  {
    "id": "eg",
    "code": "Egypt",
    "name": "Egypt",
    "phoneCode": "+20",
    "mobileLength": "10",
    "coordinates": [30, 30]
  },
  {
    "id": "bh",
    "code": "Bahrain",
    "name": "Bahrain",
    "phoneCode": "+973",
    "mobileLength": "8",
    "coordinates": [ 52,26]
  },
 
  {
    "id": "iq",
    "code": "Iraq",
    "name": "Iraq",
    "phoneCode": "+964",
    "mobileLength": "",
    "coordinates": [43,33]
  },
  {
    "id": "sa",
    "code": "Saudi Arabia",
    "name": "Saudi Arabia",
    "phoneCode": "+966",
    "mobileLength": "9",
    "coordinates": [45, 25.079162]
  },
  {
    "id": "ye",
    "code": "Yemen",
    "name": "Yemen",
    "phoneCode": "+967",
    "mobileLength": "9",
    "coordinates": [45, 15]
  },
  {
    "id": "sy",
    "code": "Syria",
    "name": "Syria",
    "phoneCode": "+963",
    "mobileLength": "9",
    "coordinates": [39,35] 
  },
  {
    "id": "jo",
    "code": "Jordan",
    "name": "Jordan",
    "phoneCode": "+962",
    "mobileLength": "9",
    "coordinates": [36,30]
  },
  {
    "id": "ae",
    "code": "United Arab Emirates",
    "name": "United Arab Emirates",
    "phoneCode": "+971",
    "mobileLength": "9",
    "coordinates": [54,24]
  },
  {
    "id": "lb",
    "code": "Lebanon",
    "name": "Lebanon",
    "phoneCode": "+961",
    "mobileLength": "7",
    "coordinates": [35,33]
  },
  {
    "id": "om",
    "code": "Oman",
    "name": "Oman",
    "phoneCode": "+968",
    "mobileLength": "8",
    "coordinates": [57,20]
  },
  {
    "id": "kw",
    "code": "Kuwait",
    "name": "Kuwait",
    "phoneCode": "+965",
    "mobileLength": "8",
    "coordinates": [48, 29]
  },
  {
    "id": "qa",
    "code": "Qatar",
    "name": "Qatar",
    "phoneCode": "+974",
    "mobileLength": "8",
    "coordinates": [51.5,25]
  },
  {
    "id": "ps",
    "code": "Palestine",
    "name": "Palestine",
    "phoneCode": "+970",
    "mobileLength": "",
    "coordinates": [35, 32]
  }
]